[{"OBJECT_NAME":"SHIYAN-20B (SY-20B)","OBJECT_ID":"2022-169B","EPOCH":"2026-03-09T23:45:17.388576","MEAN_MOTION":14.29504375,"ECCENTRICITY":0.00224209,"INCLINATION":59.9961,"RA_OF_ASC_NODE":208.3414,"ARG_OF_PERICENTER":132.0718,"MEAN_ANOMALY":228.2229,"EPHEMERIS_TYPE":0,"CLASSIFICATION_TYPE":"U","NORAD_CAT_ID":54700,"ELEMENT_SET_NO":999,"REV_AT_EPOCH":16917,"BSTAR":0.00010959596,"MEAN_MOTION_DOT":1.45e-6,"MEAN_MOTION_DDOT":0},{"OBJECT_NAME":"CZ-6A DEB","OBJECT_ID":"2024-140CA","EPOCH":"2026-03-09T15:46:26.997888","MEAN_MOTION":14.75225257,"ECCENTRICITY":0.02134198,"INCLINATION":89.2806,"RA_OF_ASC_NODE":301.2839,"ARG_OF_PERICENTER":224.2273,"MEAN_ANOMALY":134.1722,"EPHEMERIS_TYPE":0,"CLASSIFICATION_TYPE":"U","NORAD_CAT_ID":60673,"ELEMENT_SET_NO":999,"REV_AT_EPOCH":8478,"BSTAR":0.00067489672,"MEAN_MOTION_DOT":6.643e-5,"MEAN_MOTION_DDOT":0}]
